{
  "norad_id": 58096,
  "name": "STARLINK-30581",
  "history": [
    {
      "epoch": "2026-03-28T17:03:20.598912",
      "apogee_km": 483.7434413820056,
      "perigee_km": 482.26143526332726,
      "latitude_deg": -20.743888829090412,
      "longitude_deg": 57.822887680027634,
      "semi_major_axis_km": 6861.139438322666,
      "eccentricity": 0.000108,
      "inclination_deg": 43.0023,
      "raan_deg": 330.5513,
      "arg_perigee_deg": 266.5433,
      "mean_anomaly_deg": 93.5296,
      "mean_motion_rev_day": 15.27595582
    }
  ]
}